[{"OBJECT_NAME":"STARLINK-34004","OBJECT_ID":"2025-098R","EPOCH":"2026-03-09T21:20:21.238080","MEAN_MOTION":14.98333476,"ECCENTRICITY":0.0002577,"INCLINATION":70.0004,"RA_OF_ASC_NODE":273.8907,"ARG_OF_PERICENTER":262.3532,"MEAN_ANOMALY":97.7334,"EPHEMERIS_TYPE":0,"CLASSIFICATION_TYPE":"U","NORAD_CAT_ID":63941,"ELEMENT_SET_NO":999,"REV_AT_EPOCH":4658,"BSTAR":0.00046685287,"MEAN_MOTION_DOT":5.482e-5,"MEAN_MOTION_DDOT":0},{"OBJECT_NAME":"COSMOS 397","OBJECT_ID":"1971-015A","EPOCH":"2026-03-09T21:06:55.710144","MEAN_MOTION":12.74935942,"ECCENTRICITY":0.10338804,"INCLINATION":65.7267,"RA_OF_ASC_NODE":325.6378,"ARG_OF_PERICENTER":275.7656,"MEAN_ANOMALY":72.6585,"EPHEMERIS_TYPE":0,"CLASSIFICATION_TYPE":"U","NORAD_CAT_ID":4964,"ELEMENT_SET_NO":999,"REV_AT_EPOCH":65559,"BSTAR":4.9717727e-5,"MEAN_MOTION_DOT":2.9e-7,"MEAN_MOTION_DDOT":0}]
